{
"type": "FeatureCollection",
"name": "watershed_layer",
"crs": { "type": "name", "properties": { "name": "urn:ogc:def:crs:OGC:1.3:CRS84" } },
"features": [
{ "type": "Feature", "properties": { "monitoring_location_id": "USGS-01496200", "parameter_code": "00060", "last_update": "1992-04-03T04:45:00Z", "discharge": 8.4, "unit_of_measure": "ft^3/s", "last_modified": "2025-08-25T21:36:37.122Z" }, "geometry": { "type": "Point", "coordinates": [ -76.040503710543305, 39.626222973459498 ] } },
{ "type": "Feature", "properties": { "monitoring_location_id": "USGS-01494150", "parameter_code": "00060", "last_update": "2017-10-01T05:00:00Z", "discharge": 3.04, "unit_of_measure": "ft^3/s", "last_modified": "2025-08-25T23:51:46.555Z" }, "geometry": { "type": "Point", "coordinates": [ -76.054666666666705, 39.054083333333303 ] } },
{ "type": "Feature", "properties": { "monitoring_location_id": "USGS-01491500", "parameter_code": "00060", "last_update": "2026-09-18T00:45:00Z", "discharge": 19.8, "unit_of_measure": "ft^3/s", "last_modified": "2026-09-18T01:03:24.524Z" }, "geometry": { "type": "Point", "coordinates": [ -75.943056, 38.966806 ] } },
{ "type": "Feature", "properties": { "monitoring_location_id": "USGS-01492500", "parameter_code": "00060", "last_update": "2026-09-18T00:45:00Z", "discharge": 1.87, "unit_of_measure": "ft^3/s", "last_modified": "2026-09-18T01:01:25.444Z" }, "geometry": { "type": "Point", "coordinates": [ -76.108833333333322, 38.964888888888893 ] } },
{ "type": "Feature", "properties": { "monitoring_location_id": "USGS-01493500", "parameter_code": "00060", "last_update": "2026-09-18T00:45:00Z", "discharge": 3.27, "unit_of_measure": "ft^3/s", "last_modified": "2026-09-18T01:04:22.046Z" }, "geometry": { "type": "Point", "coordinates": [ -76.014555555555603, 39.280027777777804 ] } },
{ "type": "Feature", "properties": { "monitoring_location_id": "USGS-01495000", "parameter_code": "00060", "last_update": "2026-09-18T00:45:00Z", "discharge": 63.9, "unit_of_measure": "ft^3/s", "last_modified": "2026-09-18T01:02:26.555Z" }, "geometry": { "type": "Point", "coordinates": [ -75.825583333333299, 39.667583333333297 ] } },
{ "type": "Feature", "properties": { "monitoring_location_id": "USGS-01493000", "parameter_code": "00060", "last_update": "2026-09-18T01:00:00Z", "discharge": 12.2, "unit_of_measure": "ft^3/s", "last_modified": "2026-09-18T01:08:31.098Z" }, "geometry": { "type": "Point", "coordinates": [ -75.8615, 39.249944444444402 ] } },
{ "type": "Feature", "properties": { "monitoring_location_id": "USGS-01493112", "parameter_code": "00060", "last_update": "2026-09-18T01:00:00Z", "discharge": null, "unit_of_measure": "ft^3/s", "last_modified": "2026-09-18T01:06:18.404Z" }, "geometry": { "type": "Point", "coordinates": [ -75.940139, 39.257056 ] } },
{ "type": "Feature", "properties": { "monitoring_location_id": "USGS-01580000", "parameter_code": "00060", "last_update": "2026-09-18T01:15:00Z", "discharge": 31.1, "unit_of_measure": "ft^3/s", "last_modified": "2026-09-18T01:29:25.658Z" }, "geometry": { "type": "Point", "coordinates": [ -76.403305555555605, 39.6299722222222 ] } },
{ "type": "Feature", "properties": { "monitoring_location_id": "USGS-01580520", "parameter_code": "00060", "last_update": "2026-09-18T01:15:00Z", "discharge": 44.2, "unit_of_measure": "ft^3/s", "last_modified": "2026-09-18T01:30:25.446Z" }, "geometry": { "type": "Point", "coordinates": [ -76.191861111111109, 39.617444444444445 ] } },
{ "type": "Feature", "properties": { "monitoring_location_id": "USGS-01578310", "parameter_code": "00060", "last_update": "2026-09-18T01:35:00Z", "discharge": 20000.0, "unit_of_measure": "ft^3/s", "last_modified": "2026-09-18T01:43:23.596Z" }, "geometry": { "type": "Point", "coordinates": [ -76.174444444444447, 39.657888888888884 ] } },
{ "type": "Feature", "properties": { "monitoring_location_id": "USGS-01578475", "parameter_code": "00060", "last_update": "2026-09-18T01:45:00Z", "discharge": 88.2, "unit_of_measure": "ft^3/s", "last_modified": "2026-09-18T01:58:16.642Z" }, "geometry": { "type": "Point", "coordinates": [ -76.115228553333196, 39.7067746113499 ] } },
{ "type": "Feature", "properties": { "monitoring_location_id": "USGS-01581690", "parameter_code": "00060", "last_update": "2009-10-01T04:45:00Z", "discharge": 2.0, "unit_of_measure": "ft^3/s", "last_modified": "2025-08-25T22:04:14.981Z" }, "geometry": { "type": "Point", "coordinates": [ -76.392388888888902, 39.544944444444397 ] } },
{ "type": "Feature", "properties": { "monitoring_location_id": "USGS-01581757", "parameter_code": "00060", "last_update": "2020-12-23T18:05:00Z", "discharge": 93.1, "unit_of_measure": "ft^3/s", "last_modified": "2025-08-25T21:22:19.480Z" }, "geometry": { "type": "Point", "coordinates": [ -76.3060277777778, 39.439277777777797 ] } },
{ "type": "Feature", "properties": { "monitoring_location_id": "USGS-01581590", "parameter_code": "00060", "last_update": "2026-09-18T00:45:00Z", "discharge": 21.9, "unit_of_measure": "ft^3/s", "last_modified": "2026-09-18T01:18:13.126Z" }, "geometry": { "type": "Point", "coordinates": [ -76.280472222222215, 39.479888888888894 ] } },
{ "type": "Feature", "properties": { "monitoring_location_id": "USGS-01581500", "parameter_code": "00060", "last_update": "2026-09-18T01:15:00Z", "discharge": 3.06, "unit_of_measure": "ft^3/s", "last_modified": "2026-09-18T01:23:27.047Z" }, "geometry": { "type": "Point", "coordinates": [ -76.330111, 39.541472 ] } },
{ "type": "Feature", "properties": { "monitoring_location_id": "USGS-01581700", "parameter_code": "00060", "last_update": "2026-09-18T01:15:00Z", "discharge": 13.9, "unit_of_measure": "ft^3/s", "last_modified": "2026-09-18T01:30:27.454Z" }, "geometry": { "type": "Point", "coordinates": [ -76.372972222222216, 39.519944444444441 ] } },
{ "type": "Feature", "properties": { "monitoring_location_id": "USGS-01581752", "parameter_code": "00060", "last_update": "2026-09-18T01:25:00Z", "discharge": 3.5, "unit_of_measure": "ft^3/s", "last_modified": "2026-09-18T01:33:23.570Z" }, "geometry": { "type": "Point", "coordinates": [ -76.347444444444434, 39.496277777777777 ] } },
{ "type": "Feature", "properties": { "monitoring_location_id": "USGS-01580700", "parameter_code": "00060", "last_update": "2026-09-18T01:30:00Z", "discharge": 2.2, "unit_of_measure": "ft^3/s", "last_modified": "2026-09-18T01:35:28.144Z" }, "geometry": { "type": "Point", "coordinates": [ -76.142277777777778, 39.522638888888885 ] } },
{ "type": "Feature", "properties": { "monitoring_location_id": "USGS-01581649", "parameter_code": "00060", "last_update": "2026-09-18T01:30:00Z", "discharge": 2.96, "unit_of_measure": "ft^3/s", "last_modified": "2026-09-18T01:49:24.523Z" }, "geometry": { "type": "Point", "coordinates": [ -76.25911111111111, 39.492194444444443 ] } },
{ "type": "Feature", "properties": { "monitoring_location_id": "USGS-01585075", "parameter_code": "00060", "last_update": "2026-09-18T01:35:00Z", "discharge": 0.26, "unit_of_measure": "ft^3/s", "last_modified": "2026-09-18T01:47:24.531Z" }, "geometry": { "type": "Point", "coordinates": [ -76.342638888888885, 39.408527777777778 ] } },
{ "type": "Feature", "properties": { "monitoring_location_id": "USGS-01581750", "parameter_code": "00060", "last_update": "2026-09-18T01:45:00Z", "discharge": 13.5, "unit_of_measure": "ft^3/s", "last_modified": "2026-09-18T01:56:25.296Z" }, "geometry": { "type": "Point", "coordinates": [ -76.368833333333299, 39.515527777777798 ] } },
{ "type": "Feature", "properties": { "monitoring_location_id": "USGS-0158175320", "parameter_code": "00060", "last_update": "2026-09-18T01:50:00Z", "discharge": 0.8, "unit_of_measure": "ft^3/s", "last_modified": "2026-09-18T01:56:24.606Z" }, "geometry": { "type": "Point", "coordinates": [ -76.340444444444444, 39.481444444444449 ] } }
]
}
